     3.00           N                   E                   RINEX VERSION / TYPE
BRD_USR             ESA                 20190108 081836  UTCPGM / RUN BY / DATE
 GAL   5.0250E+01  4.2969E-02 -4.6387E-03  0.0000E+00       IONOSPHERIC CORR
GAUT  0.0000000000E+00 0.000000000E+00 172800 2035 GSTB   0 TIME SYSTEM CORR
GPGA -3.7834979594E-10 1.065814104E-14 172800 2035 GSTB   0 TIME SYSTEM CORR
                                                            END OF HEADER
E36 2019 01 08 06 00 00 7.621878758073E-04-4.504840944719E-12 0.000000000000E+00
     6.800000000000E+01-1.047812500000E+02 3.142988060926E-09-4.941605755429E-01
    -4.794448614120E-06 3.288921434432E-04-5.308538675308E-07 5.440594730377E+03
     1.944000000000E+05-3.725290298462E-09-8.670188541983E-01 1.862645149231E-09
     9.851610520036E-01 3.630312500000E+02-1.613252424313E+00-5.925961125781E-09
    -2.192948487964E-10 2.580000000000E+02 2.035000000000E+03 0.000000000000E+00
     3.120000000000E+00 5.600000000000E+01 9.313225746155E-10 0.000000000000E+00
     1.955500000000E+05 0.000000000000E+00 0.000000000000E+00 0.000000000000E+00
E14 2019 01 08 06 00 00 6.463085243013E-03-5.613287612505E-12 0.000000000000E+00
     6.800000000000E+01 7.528125000000E+01 1.655783255733E-09 1.111831892513E+00
     2.130866050720E-06 1.663658339530E-01-6.891787052155E-08 5.289353500366E+03
     1.944000000000E+05 6.055459380150E-06-1.462744233397E+00 1.573935151100E-06
     8.825879598569E-01 3.144062500000E+02 1.454626335666E+00-1.363628229161E-09
    -3.857303529318E-10 2.580000000000E+02 2.035000000000E+03 0.000000000000E+00
     3.120000000000E+00 5.600000000000E+01 3.306195139885E-08 0.000000000000E+00
     1.956500000000E+05 0.000000000000E+00 0.000000000000E+00 0.000000000000E+00
E14 2019 01 08 06 00 00 6.463089841418E-03-5.599076757790E-12 0.000000000000E+00
     6.800000000000E+01 7.528125000000E+01 1.655783255733E-09 1.111831892513E+00
     2.130866050720E-06 1.663658339530E-01-6.891787052155E-08 5.289353500366E+03
     1.944000000000E+05 6.055459380150E-06-1.462744233397E+00 1.573935151100E-06
     8.825879598569E-01 3.144062500000E+02 1.454626335666E+00-1.363628229161E-09
    -3.857303529318E-10 5.210000000000E+02 2.035000000000E+03 0.000000000000E+00
     3.120000000000E+00 4.550000000000E+02 3.306195139885E-08 3.725290298462E-08
     1.956550000000E+05 0.000000000000E+00 0.000000000000E+00 0.000000000000E+00
E02 2019 01 08 06 10 00 4.243536386639E-05 1.548983163957E-12 0.000000000000E+00
     6.900000000000E+01 8.187500000000E+01 2.354383783821E-09-4.656043897660E-01
     3.870576620102E-06 2.688233507797E-04 1.262128353119E-05 5.440622461319E+03
     1.950000000000E+05 2.607703208923E-08-2.947268985103E+00-5.960464477539E-08
     9.903158223319E-01 7.840625000000E+01-2.613495000157E-01-5.038066998570E-09
    -3.500145795122E-10 5.210000000000E+02 2.035000000000E+03 0.000000000000E+00
     3.120000000000E+00 0.000000000000E+00-6.286427378654E-09-7.450580596924E-09
     1.956850000000E+05 0.000000000000E+00 0.000000000000E+00 0.000000000000E+00
E04 2019 01 08 06 10 00-1.955988118425E-04-7.830180948076E-12 0.000000000000E+00
     6.900000000000E+01 4.025000000000E+01 3.448715081397E-09 1.681904722311E+00
     1.890584826469E-06 7.380649913102E-05 7.549300789833E-06 5.440611171722E+03
     1.950000000000E+05 7.450580596924E-09 1.243530482562E+00 7.823109626770E-08
     9.523324754187E-01 1.752187500000E+02 2.042500150147E+00-5.635949045614E-09
     5.778812139293E-10 5.210000000000E+02 2.035000000000E+03 0.000000000000E+00
     3.120000000000E+00 0.000000000000E+00-8.149072527885E-09-9.080395102501E-09
     1.956850000000E+05 0.000000000000E+00 0.000000000000E+00 0.000000000000E+00
E05 2019 01 08 06 10 00 1.287568593398E-04-6.536993168993E-12 0.000000000000E+00
     6.900000000000E+01 2.500000000000E+01 3.389426897521E-09 5.639978781469E-01
     1.102685928345E-06 1.364902127534E-04 8.061528205872E-06 5.440610782623E+03
     1.950000000000E+05 6.705522537231E-08 1.243464553233E+00-1.303851604462E-08
     9.523029727498E-01 1.661562500000E+02 1.587187536823E+00-5.549874031673E-09
     5.193073455211E-10 5.210000000000E+02 2.035000000000E+03 0.000000000000E+00
     3.120000000000E+00 0.000000000000E+00-1.164153218269E-09-1.396983861923E-09
     1.956850000000E+05 0.000000000000E+00 0.000000000000E+00 0.000000000000E+00
E09 2019 01 08 06 10 00 6.564655166585E-03-1.129762949859E-11 0.000000000000E+00
     6.900000000000E+01 2.903125000000E+01 3.390498370723E-09 2.839296448117E+00
     1.270323991776E-06 2.451520413160E-04 7.947906851768E-06 5.440610555649E+03
     1.950000000000E+05 2.235174179077E-08 1.234847699495E+00 5.215406417847E-08
     9.583064623164E-01 1.691562500000E+02 9.556292622517E-02-5.589518540169E-09
     5.425225982439E-10 5.210000000000E+02 2.035000000000E+03 0.000000000000E+00
     3.120000000000E+00 0.000000000000E+00-3.259629011154E-09-3.725290298462E-09
     1.956850000000E+05 0.000000000000E+00 0.000000000000E+00 0.000000000000E+00
E11 2019 01 08 06 10 00 5.719300010242E-03 9.805489753489E-13 0.000000000000E+00
     6.900000000000E+01-1.147812500000E+02 3.177632361143E-09-8.830751364469E-01
    -5.265697836876E-06 2.488880418241E-04-2.793967723846E-08 5.440603914261E+03
     1.950000000000E+05-3.911554813385E-08-8.617162457576E-01 4.097819328308E-08
     9.819154731551E-01 3.531562500000E+02-3.698936473723E-01-5.936675857807E-09
    -2.060800126311E-10 5.210000000000E+02 2.035000000000E+03 0.000000000000E+00
     3.120000000000E+00 0.000000000000E+00-1.862645149231E-08-2.025626599789E-08
     1.956850000000E+05 0.000000000000E+00 0.000000000000E+00 0.000000000000E+00
E12 2019 01 08 06 10 00 5.894862872083E-03 8.441247700830E-11 0.000000000000E+00
     6.900000000000E+01-1.111875000000E+02 3.133701959836E-09 4.483910124626E-01
    -5.139037966728E-06 3.780401311815E-04 2.589076757431E-07 5.440603099823E+03
     1.950000000000E+05-4.097819328308E-08-8.617326874939E-01-4.284083843231E-08
     9.819300686887E-01 3.461875000000E+02-8.977082773588E-01-5.849529370663E-09
    -2.085801167705E-10 5.210000000000E+02 2.035000000000E+03 0.000000000000E+00
     3.120000000000E+00 0.000000000000E+00-1.536682248116E-08-1.583248376846E-08
     1.956850000000E+05 0.000000000000E+00 0.000000000000E+00 0.000000000000E+00
E13 2019 01 08 06 10 00 3.814668161795E-04 4.831690603169E-13 0.000000000000E+00
     6.900000000000E+01-9.309375000000E+01 3.110843864848E-09-2.811596658972E+00
    -4.267320036888E-06 3.375305095688E-04-4.339963197708E-07 5.440597963333E+03
     1.950000000000E+05 2.421438694000E-08-8.670135833044E-01 4.842877388000E-08
     9.851564277195E-01 3.615625000000E+02-1.576542462739E+00-5.837386007701E-09
    -1.589351917173E-10 5.210000000000E+02 2.035000000000E+03 0.000000000000E+00
     3.120000000000E+00 4.550000000000E+02-4.423782229424E-09-5.355104804039E-09
     1.956850000000E+05 0.000000000000E+00 0.000000000000E+00 0.000000000000E+00
E14 2019 01 08 06 10 00 6.463086523581E-03-5.613287612505E-12 0.000000000000E+00
     6.900000000000E+01 8.690625000000E+01 1.814718447450E-09 1.192767882061E+00
     2.419576048851E-06 1.663646810921E-01-9.667128324509E-07 5.289358682632E+03
     1.950000000000E+05 4.904344677925E-06-1.462744602053E+00 2.397224307060E-06
     8.825870499218E-01 3.315312500000E+02 1.454642878343E+00-1.743644058345E-09
    -6.853856919223E-10 5.210000000000E+02 2.035000000000E+03 0.000000000000E+00
     3.120000000000E+00 4.550000000000E+02 3.306195139885E-08 3.725290298462E-08
     1.956850000000E+05 0.000000000000E+00 0.000000000000E+00 0.000000000000E+00
E19 2019 01 08 06 10 00-9.290932212025E-06 3.268496584496E-13 0.000000000000E+00
     6.900000000000E+01 3.953125000000E+01 3.295137255693E-09 2.249945807594E+00
     1.888722181320E-06 1.339536393061E-04 7.722526788712E-06 5.440610895157E+03
     1.950000000000E+05-7.264316082001E-08 1.240203367974E+00-9.313225746155E-09
     9.580624841538E-01 1.751562500000E+02 2.335087443776E+00-5.537730668710E-09
     5.153786104449E-10 5.210000000000E+02 2.035000000000E+03 0.000000000000E+00
     3.120000000000E+00 0.000000000000E+00-8.614733815193E-09-9.080395102501E-09
     1.956850000000E+05 0.000000000000E+00 0.000000000000E+00 0.000000000000E+00
E21 2019 01 08 06 10 00-5.133671220392E-04-1.890043677122E-12 0.000000000000E+00
     6.900000000000E+01 7.590625000000E+01 2.350455048744E-09-2.763832971777E+00
     3.583729267120E-06 4.679209087044E-05 1.200288534164E-05 5.440635522842E+03
     1.950000000000E+05-7.450580596924E-09-2.949842884134E+00 3.352761268616E-08
     9.898707441355E-01 9.765625000000E+01-3.013855872452E-01-5.079140138003E-09
    -2.832260832175E-10 5.210000000000E+02 2.035000000000E+03 0.000000000000E+00
     3.120000000000E+00 0.000000000000E+00-2.561137080193E-09-3.026798367500E-09
     1.956850000000E+05 0.000000000000E+00 0.000000000000E+00 0.000000000000E+00
E26 2019 01 08 06 10 00 5.044258432463E-03-4.328626346251E-11 0.000000000000E+00
     6.900000000000E+01-1.038750000000E+02 3.129773224760E-09-3.091992189360E+00
    -4.736706614494E-06 3.229415742680E-04 9.872019290924E-08 5.440610836029E+03
     1.950000000000E+05 9.126961231232E-08-8.580843204848E-01-4.284083843231E-08
     9.782742905366E-01 3.450937500000E+02-2.077980965025E+00-5.904531661730E-09
    -2.200091642648E-10 5.210000000000E+02 2.035000000000E+03 0.000000000000E+00
     3.120000000000E+00 0.000000000000E+00 1.164153218269E-09 1.164153218269E-09
     1.956850000000E+05 0.000000000000E+00 0.000000000000E+00 0.000000000000E+00
